STARLINK-31943          
1 59878U 24098W   26067.99443929  .00024142  00000+0  86464-3 0  9993
2 59878  43.0020 285.9160 0002992 274.9020  85.1490 15.28302612101048
HYPERFIELD-1A           
1 60562U 24149CY  26068.76488211  .00008569  00000+0  30052-3 0  9998
2 60562  97.3842 149.5066 0003865 313.7844  46.3076 15.29681349 86836
